#dP2019  9 29  0  0  0.00000000      96 __u+U ITR00 FIT  IAC
## 2073      0.00000000   900.00000000 58755 0.0000000000000
+  116   C01C02C04C05C06C07C08C09C10C11C12C13C14C16C19C20C21
+        C22C23C24C25C26C27C28C29C30C32C33C34C35C36C37E01E02
+        E03E04E05E07E08E09E11E12E13E14E15E18E19E21E24E25E26
+        E27E30E31E33E36G01G02G03G04G05G06G07G08G09G10G11G12
+        G13G14G15G16G17G18G19G20G21G22G23G24G25G26G27G28G29
+        G30G31G32J01J02J03J07R01R02R03R05R06R07R08R09R11R12
+        R13R14R15R16R17R18R19R20R21R22R23R24R26R27  0  0  0
++        13 13 13 13  9  8  8  9  8  8  8  8  0  9  8  8  8
++         8  9  8  9  8  8  8  8  8  8  9  9  9  9  9  5  5
++         5  5  5  6  5  5  5  5  5  6  5  5  5  5  4  5  5
++         5  5  5  5  5  3  3  3  4  4  3  3  3  3  4  3  3
++         4  3  3  3  3  3  3  4  3  3  4  3  3  3  3  3  3
++         3  3  3  9  9  9 13  6  5  5  5 11  5  5  6  6  6
++         6  5  5  6  5  5  6  6  6  5  5  6  8  8  0  0  0
%c M  cc GPS ccc cccc cccc cccc cccc ccccc ccccc ccccc ccccc
%c cc cc ccc ccc cccc cccc cccc cccc ccccc ccccc ccccc ccccc
%f  0.0000000  0.000000000  0.00000000000  0.000000000000000
%f  0.0000000  0.000000000  0.00000000000  0.000000000000000
%i    0    0    0    0      0      0      0      0         0
%i    0    0    0    0      0      0      0      0         0
/* INFORMATION & ANALYSIS CENTER (IAC)            RAPID DATA
/* S/V CLOCKS ARE ALIGNED TO GNSS TIME                      
/* G:C1WC2W R:C1PC2P E:C1XC5X C:C2IC6I J:C1CC2S             
/* PCV:IGS14_2070 OL/AL:FES2004  NONE     YN ORB:CoN CLK:CoN
*  2019 09 29 11 15  0.00000000
PC01 -32350.577253  27058.339914   -743.164906    -49.739270
PC02   4360.980252  41920.757917     59.823709    840.605338
PC04 -39630.348994  14449.830474   -470.570744   -379.907191
PC05  21940.247347  36014.153712    252.194756    137.094707
PC06 -16605.486114  21246.344848  32671.455874    387.338956
PC07 -21791.177681  36207.648992  -3588.587463   -161.684814
PC08  -6279.669072  30110.119383 -28607.254369     -9.511311
PC09    453.156094  24982.991018  34223.765109      2.837974
PC10 -10926.193375  37713.543262 -15733.054843   -221.589490
PC11 -10183.766905 -19165.355917  17636.334920     85.608530
PC12  17722.811128  -5816.334620  20789.758049   -251.553627
PC13   4037.912507  38082.715332 -17276.843079   -870.104573
PC14     43.476089 -17709.329249 -21531.458829 999999.999999
PC16 -11947.438442  22148.911597  33839.178085   -883.506111
PC19   9514.888317  12860.620184  22883.081158    205.493518
PC20  -9456.680507  19864.330916  17196.890586   -113.992835
PC21  23364.358269 -15196.030525  -1117.414281    284.960226
PC22  23250.089617  -1692.609655  15315.621333   -160.223145
PC23 -15820.948542  -5747.395833  22270.881680   -928.364508
PC24   3329.137828 -27256.517848  -5021.996961   -891.891252
PC25  -9611.394852 -23051.131248  12468.265907   -363.193939
PC26  12844.550957 -15983.857119 -18938.428445    404.617316
PC27 -18121.807923   5864.226238 -20404.957898    197.882924
PC28 -25455.450456  -9108.927522  -6944.248702    192.335176
PC29  18580.635822  17991.045165 -10478.813890    125.111989
PC30    215.304534  17286.761732 -21908.556577    200.348235
PC32 -23255.908600  15392.575906   1149.040787   -915.274940
PC33  -9557.152773 -12854.356005 -22850.886939   -425.801970
PC34   -434.376524 -17417.819640  21791.657495   -114.391297
PC35  25762.000955   8295.095621   6856.515489   -390.485515
PC36   8953.420225  23382.987295 -12299.076668   -906.100136
PC37 -13424.754664  15121.627867  19257.644198 999999.999999
PE01   9972.369832  15726.731167 -23000.592649   -700.043521
PE02 -10029.096398 -15657.718321  23039.613936     82.109878
PE03 -20280.266801 -10729.639410 -18713.432382   -216.195225
PE04  29415.797742  -1991.299834   2610.588514   -375.169346
PE05    853.438282 -17292.568635 -24008.756517   -444.440814
PE07 -21368.619753  13707.342368  15236.927802   -274.453526
PE08 -29413.504915   2336.094060  -2471.844343   6285.012165
PE09  21213.702681 -13794.939053 -15339.925682   6301.162135
PE11  10040.628727 -13409.297856  24395.460437   5573.289110
PE12  21345.797280   6196.337425  19551.078033   6174.691883
PE13 -10035.203514  13282.722340 -24472.374407    393.520436
PE14  14789.158898  19825.484678 -18987.495796   -737.864023
PE15 -21232.915160  -5808.888319 -19788.079398    893.553681
PE18 -22534.515727 -11339.793446   6118.080217   -832.238004
PE19  18454.585352  11670.068899  19986.660143     -3.700515
PE21  -4248.488359  27568.718135  -9909.663352   -557.491659
PE24  16121.196728 -23190.402544  -8882.098446   5846.182003
PE25   4285.314444 -27578.537002   9863.737135   1663.405105
PE26   6926.030698  24774.892352 -14629.881570   4052.043396
PE27 -16036.334594  23185.855799   9040.998892    377.374671
PE30 -18451.870722   5161.070108  22561.596894   4507.966311
PE31  18363.186514  -5220.925197 -22602.924768   -469.011236
PE33  20008.968835  21526.927136   3505.686982   -470.590878
PE36  -7078.536129 -24634.529688  14813.214586    656.048110
PG01  15664.457651   1413.912276  21250.910360   -145.022634
PG02 -14667.777756 -20624.226964  -7647.169640   -315.303066
PG03  20670.157321  -9759.638545  13392.757224    -16.296441
PG04  16353.244170  13190.207431 -16870.626977      9.989194
PG05 -12381.826844  -9344.632448 -21700.495833     -1.848815
PG06  -5432.204579 -25504.362672   5013.862215    -73.392368
PG07   9203.300589 -15320.391810 -19209.959165   -116.469223
PG08  26169.707336   5098.367536   -809.989648     -8.164339
PG09  17958.464855  -9331.656506 -17249.971694    -43.509799
PG10  -8682.559757  22297.079918  11354.097922    -73.441044
PG11  20280.700224   2232.072729  16333.269474   -493.104562
PG12 -20124.267262   4841.550952  16334.061595    199.170928
PG13 -21485.604107 -13140.053358  -8657.246008    -41.691925
PG14  10084.424497  16323.757779  18770.256165    -58.805274
PG15 -26639.855182  -2673.391271   -429.138081   -283.514796
PG16   9781.947681  11186.825934 -22191.406678    -78.560597
PG17    110.524410 -15170.033851  22224.360853    134.690304
PG18  17200.263763  10152.261313  17052.562521     89.326475
PG19  -7265.074784 -15858.583850  19722.377593   -260.677639
PG20 -13985.189430  22437.736068    965.284073    527.037346
PG21  -4448.490958  19770.012402 -16479.504021   -110.748137
PG22  19121.378794  -2777.597843  18403.856084   -759.450530
PG23  25407.316366  -1574.903486  -7902.682427   -164.255582
PG24 -17193.338341  -3380.171148  19886.689831     -2.770325
PG25 -19417.499015  17118.825161   5092.968922    -13.904725
PG26   1973.048284  18749.938640 -18649.104391     50.035066
PG27  20256.631524  12272.875849 -12436.812134    -71.235450
PG28   9985.134955 -21506.072589  12681.279989    760.730244
PG29 -20120.197534   5974.564521 -16325.815645     84.850302
PG30   1781.089912 -23601.777191 -11821.275874    -50.848780
PG31   6084.062489  25445.746958   2801.282033      7.088974
PG32    519.612295  15547.727020  21599.706100     73.952195
PJ01 -29277.628391  29880.667510  10386.655121   -343.271766
PJ02 -28316.681252  26543.368096  21245.692440     -4.846134
PJ03 -29772.830845  15580.525579 -20885.643181     -2.821767
PJ07 -25409.393841  33651.950744     43.553003     -0.064894
PR01  21385.261067 -12040.345717  -6929.889900     50.433956
PR02   4372.116527 -12583.979809 -21729.686799    390.414433
PR03 -13703.918229  -5426.540034 -20769.759992      2.297598
PR05 -20237.001934  12322.298494   9427.719950     36.597287
PR06  -2998.616807  12605.980353  21952.953341    162.817888
PR07  14231.594118   5138.398549  20577.919610    -27.311400
PR08  23736.023490  -4768.567923   8098.568096     15.403887
PR09   -732.173984  24614.192806  -6774.331503     93.124290
PR11  11565.521599  -3369.994959 -22455.298514    -80.988576
PR12   9600.348602 -19500.215206 -13330.228117     65.817979
PR13   1840.896909 -25075.532940   4268.059940    -29.025202
PR14  -6559.720933 -15758.356082  18967.582759     43.477401
PR15 -11345.576867   2452.854626  22742.290864    104.180373
PR16  -9304.527543  19720.286625  13126.216527      3.474021
PR17 -18597.858628 -17229.170315   3044.571273    264.153746
PR18 -19831.973569  -8570.458129 -13512.757282      9.131366
PR19 -10668.510444   4226.583850 -22785.006300    -56.264512
PR20   6208.266768  16412.555600 -18524.547649   -391.862471
PR21  18847.140201  17008.253100  -2284.655266    -75.478142
PR22  18936.712612   6623.471948  15827.514631   -177.675387
PR23   5753.957236  -8805.488756  23228.614290    256.996173
PR24  -8231.361865 -16969.581985  17144.611546   -185.217915
PR26   3473.206113  14872.214679 -20410.075715     -2.050678
PR27 -10373.620610  -3124.003826  23112.907306    125.111312
EOF
